[{"OBJECT_NAME":"STARLINK-31679","OBJECT_ID":"2024-073J","EPOCH":"2026-03-09T01:46:27.278976","MEAN_MOTION":15.27579085,"ECCENTRICITY":0.0001461,"INCLINATION":43.0014,"RA_OF_ASC_NODE":310.9222,"ARG_OF_PERICENTER":270.1269,"MEAN_ANOMALY":89.9415,"EPHEMERIS_TYPE":0,"CLASSIFICATION_TYPE":"U","NORAD_CAT_ID":59519,"ELEMENT_SET_NO":999,"REV_AT_EPOCH":10620,"BSTAR":-7.579484e-6,"MEAN_MOTION_DOT":-4.71e-6,"MEAN_MOTION_DDOT":0},{"OBJECT_NAME":"COSMOS 1862","OBJECT_ID":"1987-055A","EPOCH":"2026-03-09T22:37:02.390592","MEAN_MOTION":15.30492139,"ECCENTRICITY":0.00097484,"INCLINATION":82.4856,"RA_OF_ASC_NODE":47.1862,"ARG_OF_PERICENTER":26.6325,"MEAN_ANOMALY":333.5414,"EPHEMERIS_TYPE":0,"CLASSIFICATION_TYPE":"U","NORAD_CAT_ID":18152,"ELEMENT_SET_NO":999,"REV_AT_EPOCH":8987,"BSTAR":0.00034125048,"MEAN_MOTION_DOT":0.00010107,"MEAN_MOTION_DDOT":0}]
